{
  "type": "FeatureCollection",
  "features": [
    {
      "type": "Feature",
      "properties": {
        "category": "agricultural",
        "owner": "Jane Doe",
        "area": "4500 sqft",
        "propertyType": "Single Family Home",
        "address": "Chastain Meadows Pkwy NW, GA",
        "lastUpdated": "2025-03-01",
        "estimatedValue": "$550,000",
        "image": "https://maps.googleapis.com/maps/api/streetview?location=1967+E+5650+S+%2C+South+Ogden%2C+UT+84403&size=960x720&key=AIzaSyARFMLB1na-BBWf7_R3-5YOQQaHqEJf6RQ&source=outdoor&&signature=dAf4otC9YW-snGMhfTNz6t3As1E="
      },
      "geometry": {
        "type": "Polygon",
        "coordinates": [[
          [-84.554619, 34.0320025],
          [-84.5546725, 34.0320035],
          [-84.554575, 34.0324385],
          [-84.5556235, 34.0326105],
          [-84.5556275, 34.0324835],
          [-84.55564, 34.0320325],
          [-84.55564, 34.032017499999995],
          [-84.5556395, 34.031948],
          [-84.5556415, 34.031866],
          [-84.5556465, 34.031781],
          [-84.55565399999999, 34.0316995],
          [-84.55566449999999, 34.031615],
          [-84.5556775, 34.031534],
          [-84.55569299999999, 34.031453],
          [-84.555711, 34.031372],
          [-84.55563, 34.0312685],
          [-84.555375, 34.031213],
          [-84.5553175, 34.031201],
          [-84.555257, 34.03119],
          [-84.5551955, 34.0311805],
          [-84.555137, 34.031173],
          [-84.555078, 34.031167],
          [-84.555016, 34.0311625],
          [-84.554957, 34.0311595],
          [-84.554895, 34.031158],
          [-84.554636, 34.0311545],
          [-84.554621, 34.0319205],
          [-84.554619, 34.0320025]
        ]]
      }
    },
    {
      "type": "Feature",
      "properties": {
        "category": "residential",
        "owner": "John Smith",
        "area": "6200 sqft",
        "propertyType": "Townhouse",
        "address": "Powers Ferry Rd SE, GA",
        "lastUpdated": "2025-02-15",
        "estimatedValue": "$675,000",
        "image": "https://maps.googleapis.com/maps/api/streetview?location=1200+Powers+Ferry+Rd+SE%2C+Marietta%2C+GA+30067&size=960x720&key=AIzaSyARFMLB1na-BBWf7_R3-5YOQQaHqEJf6RQ"
      },
      "geometry": {
        "type": "Polygon",
        "coordinates": [[
          [-84.5523335, 34.0312175],
          [-84.55231599999999, 34.0319625],
          [-84.5529585, 34.031974],
          [-84.554619, 34.0320025],
          [-84.554621, 34.0319205],
          [-84.554636, 34.0311545],
          [-84.5525445, 34.031126],
          [-84.55252999999999, 34.031147],
          [-84.5525095, 34.0311685],
          [-84.5524855, 34.0311865],
          [-84.552458, 34.031201],
          [-84.55242849999999, 34.0312115],
          [-84.552397, 34.031218],
          [-84.5523645, 34.03122],
          [-84.5523335, 34.0312175]
        ]]
      }
    },
   
    {
      "type": "Feature",
      "properties": {
        "category": "industrial",
        "owner": "Maria Gonzalez",
        "area": "7200 sqft",
        "propertyType": "Multi-Family",
        "address": "Roswell Rd NE, GA",
        "lastUpdated": "2025-03-20",
        "estimatedValue": "$820,000",
        "image": "https://maps.googleapis.com/maps/api/streetview?location=700+Roswell+Rd+NE%2C+Marietta%2C+GA+30062&size=960x720&key=AIzaSyARFMLB1na-BBWf7_R3-5YOQQaHqEJf6RQ"
      },
      "geometry": {
        "type": "Polygon",
        "coordinates": [[
          [-84.5513295, 34.033411],
          [-84.55130799999999, 34.0337645],
          [-84.551298, 34.0339285],
          [-84.55129749999999, 34.0339425],
          [-84.55206199999999, 34.034121],
          [-84.55214149999999, 34.0341405],
          [-84.55225, 34.0341685],
          [-84.552358, 34.0341985],
          [-84.552465, 34.03423],
          [-84.55256899999999, 34.0342635],
          [-84.552711, 34.0340585],
          [-84.5527275, 34.034035],
          [-84.5528085, 34.033868],
          [-84.55270399999999, 34.0338375],
          [-84.552712, 34.0332435],
          [-84.552914, 34.0327585],
          [-84.5529585, 34.031974],
          [-84.55231599999999, 34.0319625],
          [-84.55142099999999, 34.031947],
          [-84.55140349999999, 34.031947],
          [-84.5513825, 34.0323755],
          [-84.5513785, 34.032597],
          [-84.55137049999999, 34.032729499999995],
          [-84.5513625, 34.0328655],
          [-84.55135399999999, 34.032999],
          [-84.551346, 34.033133],
          [-84.5513375, 34.0332755],
          [-84.5513295, 34.033411]
        ]]
      }
    },


    {
      "type": "Feature",
      "properties": {
        "category": "residential",
        "owner": "Placeholder Owner",
        "area": "Unknown",
        "propertyType": "Undefined",
        "address": "Placeholder Address, GA",
        "lastUpdated": "2025-04-08",
        "estimatedValue": "TBD",
        "image": "https://maps.googleapis.com/maps/api/streetview?location=Marietta,+GA&size=960x720&key=YOUR_API_KEY"
      },
      "geometry": {
        "type": "Polygon",
        "coordinates": [[
          [-84.5527275, 34.034035],
          [-84.552711, 34.0340585],
          [-84.55256899999999, 34.0342635],
          [-84.552736, 34.034321],
          [-84.5528985, 34.034383],
          [-84.553058, 34.0344495],
          [-84.553218, 34.0345215],
          [-84.5533975, 34.0346085],
          [-84.55357149999999, 34.0346975],
          [-84.55374599999999, 34.0347915],
          [-84.553918, 34.034889],
          [-84.554012, 34.0349435],
          [-84.5542755, 34.0337705],
          [-84.554575, 34.0324385],
          [-84.5546725, 34.0320035],
          [-84.554619, 34.0320025],
          [-84.5529585, 34.031974],
          [-84.552914, 34.0327585],
          [-84.552712, 34.0332435],
          [-84.55270399999999, 34.0338375],
          [-84.5528085, 34.033868],
          [-84.5527275, 34.034035]
        ]]
      }
    },

    {
      "type": "Feature",
      "properties": {
        "category": "industrial",
        "owner": "Metro Development LLC",
        "area": "Large",
        "propertyType": "Development Site",
        "address": "Near Cobb Parkway SE, Marietta, GA",
        "lastUpdated": "2025-04-08",
        "estimatedValue": "$3,500,000",
        "image": "https://maps.googleapis.com/maps/api/streetview?location=Marietta,+GA&size=960x720&key=YOUR_API_KEY"
      },
      "geometry": {
        "type": "Polygon",
        "coordinates": [[
          [-84.5587355, 34.0293445],
          [-84.5571535, 34.029133],
          [-84.5570005, 34.0292445],
          [-84.55699299999999, 34.02927],
          [-84.5569885, 34.029285],
          [-84.556945, 34.0293215],
          [-84.5569445, 34.029323],
          [-84.55694299999999, 34.029331],
          [-84.556916, 34.0294495],
          [-84.556885, 34.0295645],
          [-84.556849, 34.0296815],
          [-84.5568085, 34.0297945],
          [-84.556764, 34.029906],
          [-84.556714, 34.0300195],
          [-84.556659, 34.030131],
          [-84.556601, 34.0302385],
          [-84.556293, 34.030786],
          [-84.5562545, 34.030857],
          [-84.55621699999999, 34.030931],
          [-84.5561835, 34.031004],
          [-84.5561515, 34.03108],
          [-84.5561225, 34.031157],
          [-84.5560965, 34.031232],
          [-84.5560735, 34.0313075],
          [-84.55605299999999, 34.0313835],
          [-84.556035, 34.03146],
          [-84.55601949999999, 34.031537],
          [-84.5560065, 34.031614],
          [-84.55599649999999, 34.031694],
          [-84.5559885, 34.0317745],
          [-84.555984, 34.0318525],
          [-84.555982, 34.0319305],
          [-84.555983, 34.032009],
          [-84.55720149999999, 34.0320275],
          [-84.557333, 34.032029],
          [-84.5585825, 34.032091],
          [-84.5592755, 34.0321075],
          [-84.5596135, 34.0321155],
          [-84.5603965, 34.0321345],
          [-84.56071, 34.032142],
          [-84.56018, 34.0295515],
          [-84.56008849999999, 34.0294905],
          [-84.560006, 34.0294965],
          [-84.5599265, 34.0295005],
          [-84.55984699999999, 34.029503],
          [-84.55976749999999, 34.0295045],
          [-84.5597305, 34.029504],
          [-84.5596875, 34.029504],
          [-84.559608, 34.029502],
          [-84.5595285, 34.029499],
          [-84.559449, 34.029494],
          [-84.55944199999999, 34.029528],
          [-84.5593485, 34.02952],
          [-84.5592585, 34.0295095],
          [-84.559169, 34.0294965],
          [-84.55908, 34.029481],
          [-84.5587225, 34.0294135],
          [-84.5587355, 34.0293445]
        ]]
      }
    },

    {
      "type": "Feature",
      "properties": {
        "category": "agricultural",
        "owner": "Marietta Holdings Inc.",
        "area": "Extra Large",
        "propertyType": "Retail/Office Complex",
        "address": "Off Cobb Parkway, Marietta, GA",
        "lastUpdated": "2025-04-08",
        "estimatedValue": "$5,200,000",
        "image": "https://maps.googleapis.com/maps/api/streetview?location=Marietta,+GA&size=960x720&key=YOUR_API_KEY"
      },
      "geometry": {
        "type": "Polygon",
        "coordinates": [[
          [-84.5585825, 34.032091],
          [-84.557333, 34.032029],
          [-84.556806, 34.0351065],
          [-84.55669499999999, 34.0357425],
          [-84.55692599999999, 34.035745],
          [-84.558537, 34.035760499999995],
          [-84.5585435, 34.035760499999995],
          [-84.5585455, 34.035554],
          [-84.5585515, 34.034977],
          [-84.55855799999999, 34.0343995],
          [-84.55856399999999, 34.0338225],
          [-84.55857, 34.0332455],
          [-84.5585765, 34.032668],
          [-84.5585825, 34.032091]
        ]]
      }
    },

    {
      "type": "Feature",
      "geometry": {
        "type": "Polygon",
        "coordinates": [
          [
            [-84.55720149999999, 34.0320275],
            [-84.555983, 34.032009],
            [-84.555983, 34.0320135],
            [-84.55596299999999, 34.0327095],
            [-84.55596, 34.032801],
            [-84.55595249999999, 34.032935],
            [-84.555949, 34.0329625],
            [-84.5559445, 34.0329995],
            [-84.5559365, 34.033069],
            [-84.55591249999999, 34.0332015],
            [-84.555881, 34.0333335],
            [-84.5558645, 34.033388],
            [-84.5558415, 34.0334635],
            [-84.55579449999999, 34.033592],
            [-84.5557395, 34.0337185],
            [-84.555719, 34.0337595],
            [-84.5556775, 34.0338425],
            [-84.55560249999999, 34.0339715],
            [-84.555531, 34.0340815],
            [-84.555497, 34.0341285],
            [-84.5554475, 34.0341965],
            [-84.55536649999999, 34.0342965],
            [-84.555272, 34.034409],
            [-84.555645, 34.0346255],
            [-84.556332, 34.0350245],
            [-84.5565165, 34.0351315],
            [-84.5558035, 34.035985],
            [-84.555803, 34.0359855],
            [-84.5559595, 34.0360755],
            [-84.55600199999999, 34.036101],
            [-84.5560065, 34.036103],
            [-84.55601, 34.036105],
            [-84.556013, 34.036107],
            [-84.55601899999999, 34.0361105],
            [-84.556021, 34.036112],
            [-84.5560215, 34.036112],
            [-84.5560315, 34.036118],
            [-84.556032, 34.036118],
            [-84.5560395, 34.0361225],
            [-84.55604799999999, 34.036127],
            [-84.55605249999999, 34.0361295],
            [-84.55605299999999, 34.03613],
            [-84.5560665, 34.036137],
            [-84.5560675, 34.0361375],
            [-84.55607549999999, 34.036142],
            [-84.5560775, 34.036143],
            [-84.556079, 34.036144],
            [-84.55609749999999, 34.036154],
            [-84.55609849999999, 34.036154499999995],
            [-84.55611449999999, 34.036163],
            [-84.55612049999999, 34.036166],
            [-84.55612099999999, 34.0361665],
            [-84.556124, 34.036168],
            [-84.5561245, 34.0361685],
            [-84.5561255, 34.036169],
            [-84.5561285, 34.0361705],
            [-84.556129, 34.036171],
            [-84.55613149999999, 34.036172],
            [-84.556133, 34.036173],
            [-84.556134, 34.0361735],
            [-84.556135, 34.036174],
            [-84.5561355, 34.036174],
            [-84.5561355, 34.0361745],
            [-84.556136, 34.0361745],
            [-84.55613749999999, 34.0361755],
            [-84.5561385, 34.036176],
            [-84.5561395, 34.0361765],
            [-84.556142, 34.036178],
            [-84.55614249999999, 34.036178],
            [-84.5562035, 34.0362065],
            [-84.55621699999999, 34.0362125],
            [-84.556224, 34.036216],
            [-84.556236, 34.0362215],
            [-84.556237, 34.036222],
            [-84.55624999999999, 34.036228],
            [-84.556274, 34.0362375],
            [-84.5562765, 34.0362385],
            [-84.556277, 34.0362385],
            [-84.5562925, 34.036245],
            [-84.5562935, 34.036245],
            [-84.5562965, 34.0362465],
            [-84.5563025, 34.0362485],
            [-84.556333, 34.0362605],
            [-84.556336, 34.036262],
            [-84.5563385, 34.036263],
            [-84.5563595, 34.036271],
            [-84.556361, 34.0362715],
            [-84.556399, 34.036284],
            [-84.5564005, 34.0362845],
            [-84.55640149999999, 34.036285],
            [-84.556404, 34.036286],
            [-84.5564285, 34.036294],
            [-84.55642999999999, 34.0362945],
            [-84.55643549999999, 34.036296],
            [-84.5564375, 34.0362965],
            [-84.556474, 34.0363085],
            [-84.5564745, 34.036309],
            [-84.55647549999999, 34.036309],
            [-84.556496, 34.0363145],
            [-84.55649799999999, 34.036315],
            [-84.556499, 34.0363155],
            [-84.556508, 34.036318],
            [-84.55650949999999, 34.036318],
            [-84.5565185, 34.0363205],
            [-84.5565195, 34.036321],
            [-84.5565285, 34.036323],
            [-84.5565285, 34.0363235],
            [-84.5565305, 34.036324],
            [-84.55654, 34.036326],
            [-84.556547, 34.036328],
            [-84.5565555, 34.0363305],
            [-84.5565565, 34.0363305],
            [-84.5565585, 34.036331],
            [-84.556559, 34.0363315],
            [-84.556561, 34.036332],
            [-84.5565615, 34.036332],
            [-84.556564, 34.0363325],
            [-84.5565665, 34.0363335],
            [-84.5565675, 34.0363335],
            [-84.5565685, 34.036334],
            [-84.556572, 34.036335],
            [-84.5565745, 34.0363355],
            [-84.55657699999999, 34.036336],
            [-84.5565795, 34.036337],
            [-84.556581, 34.036337],
            [-84.5565925, 34.03634],
            [-84.55659299999999, 34.0363365],
            [-84.55669499999999, 34.0357425],
            [-84.556806, 34.0351065],
            [-84.557333, 34.032029],
            [-84.55720149999999, 34.0320275]
          ]
        ]
      },
      "properties": {
        "category": "agricultural",
        "owner": "Jane Doe",
        "area": "4500 sqft",
        "propertyType": "Single Family Home",
        "address": "Chastain Meadows Pkwy NW, GA",
        "lastUpdated": "2025-03-01",
        "estimatedValue": "$550,000",
        "image": "https://maps.googleapis.com/maps/api/streetview?location=1967+E+5650+S+%2C+South+Ogden%2C+UT+84403&size=960x720&key=AIzaSyARFMLB1na-BBWf7_R3-5YOQQaHqEJf6RQ&source=outdoor&&signature=dAf4otC9YW-snGMhfTNz6t3As1E="
      }
    },
    {
      "type": "Feature",
      "properties": {
        "category": "agricultural",
        "owner": "Jaydev",
        "area": "4500 sqft",
        "propertyType": "Single Family Home",
        "address": "Chastain Meadows Pkwy NW, GA",
        "lastUpdated": "2025-03-01",
        "estimatedValue": "$550,000",
        "image": "https://maps.googleapis.com/maps/api/streetview?location=1967+E+5650+S+%2C+South+Ogden%2C+UT+84403&size=960x720&key=AIzaSyARFMLB1na-BBWf7_R3-5YOQQaHqEJf6RQ&source=outdoor&&signature=dAf4otC9YW-snGMhfTNz6t3As1E="
      },
      "geometry": {
        "type": "MultiPolygon",
        "coordinates": [
          [
            
              [-122.444433, 37.779862],
              [-122.44444, 37.779914],
              [-122.444446, 37.779967],
              [-122.444028, 37.780019],
              [-122.444014, 37.779915],
              [-122.444433, 37.779862]
            
          ]
        ]
      }
    }


   
    
    

   


    
    
  ]
}
